stk.v.4.3 

BEGIN Ephemeris 
 
NumberOfEphemerisPoints		146 
ScenarioEpoch	    3 Sep 2020 21:40:46.784073115 
InterpolationMethod		Lagrange 
InterpolationOrder		5 
CentralBody				Earth 
CoordinateSystem			TEME 
CoordinateSystemEpoch	  3 Sep 2020 21:40:46.784073115 
DistanceUnit			Kilometers 
 
EphemerisTimePosVel 
 
       0.00000000   -4086.39301962    5877.96929794       0.03110221 -0.379656365 -0.275129779  7.448740999
 END Ephemeris 
